     3.04           N: GNSS NAV DATA    G: GPS              RINEX VERSION / TYPE
cnvtToRINEX 3.14.0  convertToRINEX OPR  20250615 162118 UTC PGM / RUN BY / DATE 
----------------------------------------------------------- COMMENT             
GPSA   0.1583D-07  0.2235D-07 -0.1192D-06 -0.1192D-06       IONOSPHERIC CORR    
GPSB   0.1167D+06  0.1638D+06 -0.1311D+06 -0.4588D+06       IONOSPHERIC CORR    
GPUT  0.9313225746D-09-0.177635684D-14 233472 2371          TIME SYSTEM CORR    
    18                                                      LEAP SECONDS        
                                                            END OF HEADER       
G18 2025 06 15 08 00 00-0.610562507063D-03 0.591171556152D-11 0.000000000000D+00
     0.121000000000D+03 0.101625000000D+03 0.406302638421D-08-0.161244400554D+01
     0.524148344994D-05 0.520297850017D-02 0.512972474098D-05 0.515368915939D+04
     0.288000000000D+05-0.838190317154D-07 0.143543910151D+01-0.856816768646D-07
     0.973346807939D+00 0.289593750000D+03-0.295768749853D+01-0.788389982464D-08
     0.112504686272D-09 0.100000000000D+01 0.237100000000D+04 0.000000000000D+00
     0.200000000000D+01 0.000000000000D+00-0.838190317154D-08 0.889000000000D+03
     0.257880000000D+05 0.400000000000D+01 0.000000000000D+00 0.000000000000D+00
G23 2025 06 15 08 00 00 0.494650099427D-03 0.636646291241D-11 0.000000000000D+00
     0.128000000000D+03-0.449687500000D+02 0.393730686178D-08-0.269642497777D+01
    -0.224076211452D-05 0.527388672344D-02 0.218488276005D-05 0.515365138817D+04
     0.288000000000D+05-0.745058059692D-08 0.243951545022D+01-0.409781932831D-07
     0.984697248456D+00 0.350500000000D+03-0.284938136209D+01-0.796890336538D-08
     0.107147320259D-10 0.100000000000D+01 0.237100000000D+04 0.000000000000D+00
     0.200000000000D+01 0.000000000000D+00-0.838190317154D-08 0.128000000000D+03
     0.257880000000D+05 0.400000000000D+01 0.000000000000D+00 0.000000000000D+00
G16 2025 06 15 07 59 44 0.386228784919D-04 0.841282599140D-11 0.000000000000D+00
     0.000000000000D+00-0.446875000000D+01 0.508592613495D-08 0.138156612652D+01
    -0.134110450745D-06 0.144486130448D-01 0.685825943947D-05 0.515374275017D+04
     0.287840000000D+05-0.290572643280D-06-0.591605648281D+00 0.134110450745D-06
     0.959467542360D+00 0.252437500000D+03 0.886326268532D+00-0.827855912093D-08
    -0.346085844436D-09 0.100000000000D+01 0.237100000000D+04 0.000000000000D+00
     0.200000000000D+01 0.000000000000D+00-0.102445483208D-07 0.000000000000D+00
     0.257880000000D+05 0.400000000000D+01 0.000000000000D+00 0.000000000000D+00
G27 2025 06 15 07 59 44-0.244160182774D-04 0.454747350886D-12 0.000000000000D+00
     0.420000000000D+02 0.450312500000D+02 0.461769234542D-08 0.459174232827D+00
     0.257976353168D-05 0.134536962723D-01 0.980496406555D-05 0.515369655991D+04
     0.287840000000D+05-0.521540641785D-07 0.356522949172D+00 0.134110450745D-06
     0.956770540236D+00 0.187656250000D+03 0.849354637727D+00-0.812891003030D-08
    -0.604310886260D-09 0.100000000000D+01 0.237100000000D+04 0.000000000000D+00
     0.200000000000D+01 0.000000000000D+00 0.232830643654D-08 0.420000000000D+02
     0.258480000000D+05 0.400000000000D+01 0.000000000000D+00 0.000000000000D+00
G10 2025 06 15 08 00 00-0.454386696219D-03-0.110276232590D-10 0.000000000000D+00
     0.680000000000D+02-0.485937500000D+02 0.386908973455D-08 0.239256335486D+01
    -0.255368649960D-05 0.101763885468D-01 0.214017927647D-05 0.515364958191D+04
     0.288000000000D+05-0.298023223877D-07 0.247035349269D+01-0.253319740295D-06
     0.989639709872D+00 0.353718750000D+03-0.231552256903D+01-0.791854412486D-08
    -0.246438836595D-10 0.100000000000D+01 0.237100000000D+04 0.000000000000D+00
     0.200000000000D+01 0.000000000000D+00 0.232830643654D-08 0.680000000000D+02
     0.258780000000D+05 0.400000000000D+01 0.000000000000D+00 0.000000000000D+00
